#dP2023  1 29  0  0  0.00000000      96 __u+U ITR14 FIT  IAC
## 2247      0.00000000   900.00000000 59973 0.0000000000000
+  130   C01C02C03C04C05C06C07C08C09C10C11C12C13C14C16C19C20
+        C21C22C23C24C25C26C27C28C29C30C32C33C34C35C36C37C38
+        C39C40C41C42C43C44C45C46C59C60E01E02E03E04E05E07E08
+        E09E10E11E12E13E14E15E18E19E21E24E25E26E27E30E31E33
+        E34E36G01G02G03G04G05G06G07G08G09G10G11G12G13G14G15
+        G16G17G18G19G20G21G22G23G24G25G26G27G29G30G31G32J02
+        J03J04J07R01R02R03R04R05R06R07R08R09R10R11R12R13R14
+        R15R16R17R18R19R20R21R22R23R24R25  0  0  0  0  0  0
++        17 17 17 17 16  9  9  9  9  9  9  9  9  9  9  7  7
++         7  7  7  7  7  7  7  7  7  7  7  7  7  7  7  7  8
++         8  8  7  7  8  7  7  7  0 19  4  4  5  4  5  4  4
++         4  4  4  4  5  4  5  4  4  4  4  4  8  4  5  4  4
++         4  4  4  4  4  4  4  4  4  4  4  4  4  3  4  4  4
++         4  4  4  4  4  4  4  4  4  4  4  4  4  4  3  4  8
++         8  9 17  7  6  5  5  6 15  6  6  6 15  6  6  7  6
++         6  6  6  6  7  7  6  6 15  6  8  0  0  0  0  0  0
%c M  cc GPS ccc cccc cccc cccc cccc ccccc ccccc ccccc ccccc
%c cc cc ccc ccc cccc cccc cccc cccc ccccc ccccc ccccc ccccc
%f  0.0000000  0.000000000  0.00000000000  0.000000000000000
%f  0.0000000  0.000000000  0.00000000000  0.000000000000000
%i    0    0    0    0      0      0      0      0         0
%i    0    0    0    0      0      0      0      0         0
/* INFORMATION & ANALYSIS CENTER (IAC)            RAPID DATA
/* S/V CLOCKS ARE ALIGNED TO GNSS TIME                      
/* G:C1WC2W R:C1PC2P E:C1XC5X C:C2IC6I J:C1CC2S             
/* PCV:IGS20_2239 OL/AL:FES2004  NONE     YN ORB:CoN CLK:CoN
*  2023 01 29 19 15  0.00000000
PC01 -34254.957055  24536.113053    902.912849    915.340178
PC02   4320.464036  41957.594558    952.556847   -345.058693
PC03 -14839.415928  39456.331114   1391.089414    144.247290
PC04 -39616.761725  14373.266064    202.141493    -37.117983
PC05  21798.668152  36082.862954   1086.887280    256.566850
PC06 -15369.657104  39058.673174  -5285.843584   -188.693788
PC07  -2295.268118  32279.990585 -26895.033224    189.837899
PC08 -12704.500315  20694.738044  34429.036446    527.685902
PC09 -10842.310338  38710.791800 -13196.140034    462.322005
PC10   3874.037109  34474.663377 -23332.161782     22.326877
PC11  16770.757692 -14305.149831  17195.158826   -150.131807
PC12  14431.192225   5434.591798  23300.627983    423.807133
PC13  -6485.167792  22566.582774  35145.558421    195.223221
PC14  16470.587341  -4564.142576 -22030.189259    421.346554
PC16 -16244.135624  38868.890993  -3784.298224     71.211093
PC19  -9108.890881  13111.604000  22913.310723   -895.363924
PC20 -20514.151644  -3203.387033  18671.900106    746.720703
PC21  20350.017060  18874.371566  -2782.995819   -913.601296
PC22   8087.687953  22667.955699  14107.587858   -660.061491
PC23   1779.128998 -16840.027307  22176.583214   -873.774144
PC24  27321.694421  -2508.913271  -5206.940926   -477.702913
PC25  19707.238974 -14818.096831  13077.722359     63.424294
PC26  19085.708352   8751.465202 -18418.679259    -71.311495
PC27 -10833.877636 -14585.755328 -21192.833904     88.944691
PC28   1211.857192 -26160.306269  -9632.274199     64.514179
PC29 -12781.453704  23123.833484  -8994.578023     74.046273
PC30 -16982.608456   5366.963663 -21493.410001      1.247438
PC32 -20499.658149 -18742.366969   2748.040374   -636.154645
PC33   9101.047727 -13119.411892 -22881.123160   -876.614668
PC34  17079.477175  -6674.828471  21019.425910     94.544768
PC35  -1173.992010  26591.621162   8448.675557    689.367997
PC36 -20548.607948  14088.715901 -12545.079215   -660.733135
PC37 -17611.764630 -10030.386759  19174.530312   -834.139399
PC38 -21294.847092  21740.476671  29154.437827     55.261545
PC39 -18353.615779  37903.495696   3790.149373     -1.613005
PC40  -5622.562676  28033.930508 -30910.101469    -13.771206
PC41  -7679.876004 -22538.060648 -14500.026867   -550.494620
PC42  20969.467946   4361.492172 -17833.876003   -866.807853
PC43  13242.733431 -22563.496233   9666.433908      4.552972
PC44  11343.532128  14463.622139  20997.712959    192.751216
PC45  -1304.898608  16666.303559 -22349.738968    -53.779850
PC46 -27402.861044   3777.275719   3493.961345    -29.808864
PC59      0.000000      0.000000      0.000000 999999.999999
PC60   7316.991200  41515.343973   1078.795310 999999.999999
PE01 -15289.053933  11308.226948 -22684.808261   -599.124963
PE02  14933.294676 -11517.452678  22812.659560     17.655388
PE03   8342.956768 -21847.665513 -18152.610530   -644.814213
PE04   4937.880393  29129.494144   1852.241424    -46.873472
PE05  17035.681068  -1517.801907 -24157.357628   -100.423701
PE07 -15627.307336 -19465.790255  15914.156648    -18.939575
PE08  -4932.690603 -29122.787053  -1977.141309    -27.504072
PE09  15508.595120  19614.499066 -15832.699166   -817.519069
PE10   5552.635854  16071.646048  24228.514425   -508.615507
PE11  14964.158808   7716.168824  24340.420119    669.287061
PE12  -3817.289706  21234.612951  20279.667635   -402.588939
PE13 -14242.718834  -8390.697971 -24545.400688    429.617125
PE14 -11087.604817 -28261.210006 -10199.263798    127.337014
PE15   4132.146450 -21306.607836 -20111.827515    690.854745
PE18   5185.812656  23113.959293   4161.725751   -451.968817
PE19  -9909.196662  19623.924874  19829.754437  -3364.564298
PE21 -27459.650777  -1028.873729 -10997.030878   -509.114765
PE24  24425.573944  14343.319012  -8665.739691  -1085.191412
PE25  27574.202459   1277.456291  10703.803150   -598.255109
PE26 -24253.177677   9871.326276 -13794.282477      2.999768
PE27 -24962.219860 -13805.082932   7869.194582   -499.597454
PE30  -6955.560824 -18341.701529  22145.989934  -1200.094416
PE31   7807.504901  18321.463387 -21901.148445   -514.628368
PE33 -19926.275781  21557.131449   3856.192508   -453.175810
PE34  19798.797647 -21639.765684  -4003.802733    -27.376637
PE36  24046.833805  -9262.341653  14563.445424     -4.616690
PG01  10097.429651 -19827.133370 -14544.518957    218.586984
PG02  -5739.558233  20770.298098  16306.521982   -624.273851
PG03    865.498621 -15426.852032 -21739.715440   -368.543123
PG04    989.819475 -25879.561210  -5618.831311    -38.630414
PG05 -16636.138292   8146.089914  18908.835595   -113.880235
PG06 -19963.864458   1016.032130 -17464.387861    565.726799
PG07  -4558.332865 -15748.901117  21242.066334    250.453310
PG08   7890.324403 -19501.505172  15920.325653   -105.973579
PG09  -7844.978640 -24829.466618   5031.187708   -227.792427
PG10  23937.362654  11559.376298   2994.721823    -22.485196
PG11 -23239.915085  11044.881401  -6504.331440    -90.637266
PG12  -3623.597870  15021.776899 -21889.593372   -334.007924
PG13 -12984.865857  12701.095095  19133.858152    467.559003
PG14 -22354.881282 -13585.932791   4977.878383    -39.045712
PG15  -5548.566360  20741.723446  15007.938475      8.874951
PG16  19642.438137  -3629.116847  17438.878116   -522.204648
PG17 -12405.985100 -16549.065363 -16173.181488    696.671675
PG18   7063.516744  13329.190520  21855.313993   -118.998913
PG19 -14868.990694  -5498.721343 -21580.256040    270.681463
PG20 -24163.637503   2556.082997  10501.439751    453.980209
PG21  15857.209032 -19942.433942  -5202.684827    153.728868
PG22  15039.134795   1319.876887 -21429.154654    416.231897
PG23  16942.236251  15718.255189  13219.280993      4.097703
PG24 -11870.720401  21439.132061 -10043.592155    -51.353247
PG25   7195.332232  17334.755130 -19208.974495    415.600104
PG26  25715.061336   3304.937259   6428.795095    240.959334
PG27  13293.840773  -8574.136469  21033.114487    115.006994
PG29   3614.156927  26140.737768   2555.878845   -583.218802
PG30 -15875.249741  -6690.119031  20366.659071   -531.929657
PG31  21451.948857  -2050.272382 -15985.730188   -207.744718
PG32  14651.122747  13217.363989 -17711.513795   -379.811545
PJ02 -29290.147069  14533.442241 -22047.311103     -0.720987
PJ03 -25121.475135  32805.749765  -3536.625198      0.032355
PJ04 -24956.031612  27573.709598  25981.511266    121.036115
PJ07 -25394.379899  33667.040054    -19.844460     -0.018565
PR01  -6642.769801   9550.528292  22702.489697     22.106848
PR02   6580.888161  21347.605750  12422.757859    -23.316885
PR03  15382.175784  19826.692962  -4708.488096     71.591363
PR04  15246.817581   7553.873508 -18980.635552    173.883819
PR05   6984.623284  -8870.613772 -22858.435301    106.922099
PR06  -7971.269366 -21372.793322 -11399.862836    -92.835496
PR07 -15579.321023 -19368.604901   5647.240915     48.905974
PR08 -15319.361032  -7167.720657  19140.089386    -69.247478
PR09    785.835955 -11395.440093  22816.881117    101.245770
PR10 -15520.301510  -7941.329575  18570.838556    -90.037674
PR11 -25325.701186    126.538933   3100.704185      1.416802
PR12 -18899.029629   8225.959760 -14995.212649     24.665326
PR13  -2902.915164  11157.485163 -22774.783866    -31.451385
PR14  17055.853356   7465.987263 -17425.502646     24.303298
PR15  25430.793222   -403.265665  -1943.182745     91.421547
PR16  19087.533477  -8190.305396  14789.421398     10.613131
PR17   5027.734412  11954.244647  21971.911108    600.175864
PR18  13194.734576  -4300.837181  21408.274471     64.217695
PR19  15374.179377 -17184.688739  10911.543330   -219.994755
PR20   7814.016408 -22255.161233  -9639.666260    -86.763460
PR21  -5889.140889 -10509.737385 -22481.813075   -369.261949
PR22 -13976.056665   4538.908850 -20824.843892     68.769961
PR23 -14164.796847  20272.439013  -6268.745639    -70.830075
PR24  -6532.154780  22460.371014  10186.769665    143.064347
PR25  -4442.789821 -12654.889596 -21692.119824     52.970479
EOF
